IRIDIUM 136             
1 42962U 17061H   24033.49600190  .00000318  00000+0  10661-3 0  9997
2 42962  86.3966  27.0105 0002267  80.5363 279.6089 14.34219940330756
